{
  "id": "301",
  "name": "Moon ",
  "epoch": "2000-Jan-01 12:00:00.0000",
  "physicalData": {
    "meanRadius": 1737530,
    "mass": 7.349e22,
    "siderealRotRate": 0.00015250417632997122,
    "gravParameter": 4902800.066,
    "obliquity": 6.67
  },
  "elementTable": {
    "eccentricity": 0.03115250604043153,
    "periapsis": 139941014.5701823,
    "inclination": 0.02553613862514169,
    "longitudeOfAscendingNode": 313.5141421748823,
    "argumentOfPeriapsis": 271.4012642660877,
    "timeOfPeriapsis": 2451661.879912318,
    "meanMotion": 0.02553613862514169,
    "meanAnomaly": 238.5779166596641,
    "trueAnomaly": 235.5936224066128,
    "semiMajorAxis": 238.5779166596641,
    "apoapsis": 148940394.4083545,
    "siderealOrbitPeriod": 29940458.05118562
  },
  "vectorTable": {
    "position": [-26790642061.61821, 144422317050.8761, 35660047.20103741],
    "velocity": [-29150.72868144845, -6200.278922457702, -11.32468106068396],
    "range": 146886164889.8782,
    "rangeRate": -779.4628876553128
  }
}
